# From MPC106342
C/1995 O1 (Hale-Bopp),e,89.0073,283.3242,130.5630,179.4202,0.0004101,0.99494194,0.0000,03/29.7175/1997,2000,g -2.0,4.0
# From NK 1615
P/1996 R2 (Lagerkvist),e,2.6003,40.0342,333.3079,3.775031,0.1343765,0.31400757,83.2310,10/23.0/2020,2000,g 11.5,4.0
# From MPC 30063
P/1997 B1 (Kobayashi),e,12.3396,328.8855,183.3634,8.566847,0.0393072,0.76009416,339.4890,10/23.0/2020,2000,g 15.0,2.0
# From MPC 75703
P/1998 VS24 (LINEAR),e,5.0251,159.0308,244.6848,4.529779,0.1022324,0.24193616,103.1533,10/23.0/2020,2000,g 13.0,2.0
# From NK 731
P/1999 RO28 (LONEOS),e,7.5666,137.8832,231.2706,3.426786,0.1553723,0.67203329,75.3412,10/23.0/2020,2000,g 20.0,2.0
# From MPC 75704
P/1999 XN120 (Catalina),e,5.0297,285.2954,161.9086,4.178955,0.1153726,0.21037915,141.9310,10/23.0/2020,2000,g 13.5,2.0
# From NK 744
P/2000 R2 (LINEAR),e,11.6843,160.2953,176.5125,3.465989,0.1527437,0.53155580,75.3941,10/23.0/2020,2000,g 18.0,4.0
# From MPC 43019
P/2001 H5 (NEAT),e,8.3675,328.6854,224.8709,6.098188,0.0654490,0.59871679,119.8011,10/23.0/2020,2000,g 12.0,4.0
# From MPC 75704
P/2001 Q6 (NEAT),e,56.9014,22.1260,42.9480,7.950234,0.0439677,0.82279209,306.1773,10/23.0/2020,2000,g 13.5,4.0
# From MPC 47727
P/2002 EJ57 (LINEAR),e,4.9760,330.3300,167.3587,6.473354,0.0598425,0.59286580,51.3117,10/23.0/2020,2000,g 12.5,4.0
# From MPEC 2020-SI8
P/2002 T5 (LINEAR),e,30.8529,123.0883,326.7689,7.004929,0.0531617,0.43786951,337.7874,10/23.0/2020,2000,g  8.0,4.0
# From MPC109588
P/2002 T6 (NEAT-LINEAR),e,10.8331,206.4828,219.5769,7.669017,0.0464082,0.55997663,296.4291,10/23.0/2020,2000,g 10.5,4.0
# From MPC 50354
P/2003 F2 (NEAT),e,11.6048,359.0776,191.9027,6.488783,0.0596292,0.54215930,20.6176,10/23.0/2020,2000,g 16.5,2.0
# From MPC 50139
P/2003 QX29 (NEAT),e,11.3898,264.5906,37.3919,8.033280,0.0432877,0.47296129,284.3816,10/23.0/2020,2000,g  8.5,4.0
# From MPC105235
P/2003 T12 (SOHO),e,11.0167,174.5734,219.7704,2.586230,0.2369754,0.76963717,40.0820,10/23.0/2020,2000,g 17.0,4.0
# From MPC 82312
P/2004 A1 (LONEOS),e,10.5516,124.8475,21.4341,7.955223,0.0439264,0.30938305,259.7177,10/23.0/2020,2000,g  6.5,4.0
# From MPC 54558
P/2004 DO29 (Spacewatch-LINEAR),e,14.5316,147.3808,40.7295,7.282426,0.0501522,0.44135855,293.7660,10/23.0/2020,2000,g 13.5,2.0
# From MPC 54823
P/2004 FY140 (LINEAR),e,2.1348,326.7620,242.4658,4.901506,0.0908259,0.16866148,174.0942,10/23.0/2020,2000,g 12.5,2.0
# From MPC 53304
P/2004 R3 (LINEAR-NEAT),e,12.8253,305.4811,38.8311,4.792088,0.0939544,0.26124525,328.0332,10/23.0/2020,2000,g 14.5,4.0
# From MPC 55521
P/2004 V3 (Siding Spring),e,50.4317,356.1149,322.2942,7.144420,0.0516123,0.44631795,301.9406,10/23.0/2020,2000,g 11.5,4.0
# From MPC 75705
P/2004 V5 (LINEAR-Hill),e,19.3455,47.7680,87.7959,7.975385,0.0437599,0.44353437,250.9593,10/23.0/2020,2000,g  8.0,4.0
# From MPC 54164
P/2005 E1 (Tubbiolo),e,4.2637,335.5735,194.1315,7.037119,0.0527973,0.37519856,303.4005,10/23.0/2020,2000,g 10.0,4.0
# From MPC 54823
P/2005 GF8 (LONEOS),e,1.1937,314.8351,285.1570,5.865313,0.0693853,0.51823263,27.0117,10/23.0/2020,2000,g 11.5,4.0
# From MPC 79019
P/2005 J1 (McNaught),e,31.7670,268.8025,338.9562,3.569714,0.1461349,0.56990784,108.3259,10/23.0/2020,2000,g 16.5,4.0
# From MPC 74246
P/2005 L1 (McNaught),e,7.7386,138.2478,149.6933,3.975242,0.1243537,0.20934881,313.2923,10/23.0/2020,2000,g  9.5,4.0
# From MPC 75706
P/2005 S2 (Skiff),e,3.1357,161.1954,229.1620,8.017572,0.0434150,0.19682355,229.3432,10/23.0/2020,2000,g  7.5,4.0
# From MPC 75706
P/2005 SB216 (LONEOS),e,24.0706,1.2455,83.3957,7.126720,0.0518047,0.46326522,260.7773,10/23.0/2020,2000,g 12.0,2.0
# From MPC 55717
P/2005 T2 (Christensen),e,8.2927,260.1573,58.8088,3.845974,0.1306756,0.41641851,25.8264,10/23.0/2020,2000,g 14.5,4.0
# From MPC 73461
P/2005 T3 (Read),e,6.2249,27.7476,7.0612,7.576625,0.0472596,0.17388977,259.2786,10/23.0/2020,2000,g  9.0,4.0
# From MPC 73461
P/2005 T4 (SWAN),e,160.1772,25.6591,41.5634,9.360816,0.0344139,0.92994459,189.4026,10/23.0/2020,2000,g 15.0,4.0
# From MPC 75706
P/2005 T5 (Broughton),e,21.3516,57.0081,304.5197,7.291826,0.0500553,0.55194646,275.1177,10/23.0/2020,2000,g 11.0,4.0
# From MPC 56954
P/2005 W3 (Kowalski),e,16.4167,210.0943,200.6664,6.333070,0.0618419,0.54354887,339.4259,10/23.0/2020,2000,g 12.0,4.0
# From MPC 75706
P/2005 XA54 (LONEOS-Hill),e,17.1187,143.6711,15.1387,6.052265,0.0661953,0.71017986,353.4940,10/23.0/2020,2000,g 14.0,4.0
# From MPC 75706
P/2005 Y2 (McNaught),e,19.0985,94.5146,194.0591,6.380926,0.0611475,0.47015992,0.1280,10/23.0/2020,2000,g  9.0,4.0
# From MPC 56954
P/2006 F4 (Spacewatch),e,12.3985,183.8918,31.1865,3.527660,0.1487558,0.33928107,66.5365,10/23.0/2020,2000,g 15.0,4.0
# From MPC 75707
P/2006 HR30 (Siding Spring),e,31.8303,309.9013,117.2920,7.811243,0.0451465,0.84198120,228.5229,10/23.0/2020,2000,g 11.0,4.0
# From MPC 75707
P/2006 S4 (Christensen),e,39.5368,36.0969,305.1524,6.310338,0.0621763,0.50791466,332.0987,10/23.0/2020,2000,g 11.0,4.0
# From MPC 75707
P/2007 A2 (Christensen),e,26.4877,300.9066,186.7638,6.324158,0.0619726,0.55753660,312.4397,10/23.0/2020,2000,g 13.5,4.0
# From MPC 59319
P/2007 B1 (Christensen),e,12.3764,77.6669,46.7539,5.819391,0.0702082,0.58091287,353.3551,10/23.0/2020,2000,g 13.5,4.0
# From MPC 75707
P/2007 C2 (Catalina),e,8.6629,275.6466,179.8649,6.995060,0.0532742,0.46982659,254.3890,10/23.0/2020,2000,g 10.0,4.0
# From MPC 82314
P/2007 K2 (Gibbs),e,7.6372,188.6474,347.4742,7.262188,0.0503620,0.68340236,246.1611,10/23.0/2020,2000,g 14.0,4.0
# From MPC 60925
P/2007 Q2 (Gilmore),e,10.2019,172.1613,162.7784,5.656741,0.0732579,0.67036589,357.4374,10/23.0/2020,2000,g 16.0,4.0
# From MPC 75708
P/2007 R2 (Gibbs),e,1.2165,11.4294,352.3835,3.572742,0.1459492,0.54221542,5.3695,10/23.0/2020,2000,g 17.0,4.0
# From MPC 75708
P/2007 R4 (Garradd),e,20.2279,87.2222,282.6782,5.924618,0.0683461,0.66994411,331.8490,10/23.0/2020,2000,g 14.5,4.0
# From MPC 73462
P/2007 S1 (Zhao),e,5.9630,141.3825,245.7648,3.812227,0.1324146,0.33965947,265.2351,10/23.0/2020,2000,g 13.0,4.0
# From MPC 61994
P/2007 T2 (Kowalski),e,9.7442,3.3755,359.6354,3.047246,0.1852861,0.78519611,152.3621,10/23.0/2020,2000,g 18.5,4.0
# From MPEC 2020-UG9
P/2007 VQ11 (Catalina),e,12.3200,163.8165,277.6740,5.425776,0.0779850,0.50324741,2.8558,10/23.0/2020,2000,g 12.0,4.0
# From MPC 75708
P/2008 CL94 (Lemmon),e,8.3475,33.3337,80.5488,6.160485,0.0644587,0.12022362,338.4587,10/23.0/2020,2000,g  8.0,4.0
# From MPC 75709
P/2008 L2 (Hill),e,25.8555,218.0049,141.2091,6.028644,0.0665847,0.61298340,298.0567,10/23.0/2020,2000,g 12.5,4.0
# From MPC 64114
P/2008 O3 (Boattini),e,32.2451,47.6005,341.0847,8.223596,0.0417938,0.69498344,189.6016,10/23.0/2020,2000,g 13.0,4.0
# From MPC 75709
P/2008 QP20 (LINEAR-Hill),e,7.5207,322.0842,75.6575,3.551394,0.1472671,0.49242075,295.7748,10/23.0/2020,2000,g 15.5,4.0
# From MPC 66204
P/2008 WZ96 (LINEAR),e,7.1133,56.5082,341.8378,3.491338,0.1510832,0.47057487,313.5248,10/23.0/2020,2000,g 13.5,4.0
# From MPC 75710
P/2008 Y3 (McNaught),e,38.7623,262.7887,238.2800,8.045724,0.0431873,0.44555646,186.4982,10/23.0/2020,2000,g  8.5,4.0
# From MPC 75710
P/2009 B1 (Boattini),e,22.2192,297.0915,128.9011,6.735552,0.0563825,0.63461492,242.7462,10/23.0/2020,2000,g 13.0,4.0
# From MPC 75710
P/2009 O3 (Hill),e,16.2623,183.7190,154.3823,7.770902,0.0454985,0.68748320,189.9242,10/23.0/2020,2000,g 12.5,4.0
# From MPC 98557
P/2009 Q1 (Hill),e,14.5054,173.9587,157.1244,5.519922,0.0759984,0.49473241,316.0591,10/23.0/2020,2000,g 11.5,4.0
# From MPEC 2020-SI8
P/2009 Q4 (Boattini),e,11.0152,127.4652,320.2326,3.127895,0.1781664,0.58256565,348.4647,10/23.0/2020,2000,g 15.5,4.0
# From MPC 68902
P/2009 Q5 (McNaught),e,40.9716,160.2605,209.0187,7.438476,0.0485823,0.60859244,197.6761,10/23.0/2020,2000,g 10.0,4.0
# From MPC112389
P/2009 T2 (La Sagra),e,27.5428,215.7856,216.4283,7.724576,0.0459084,0.76503003,181.4521,10/23.0/2020,2000,g 14.0,4.0
# From MPC 75711
P/2009 U4 (McNaught),e,10.0812,55.3593,259.8450,5.082551,0.0860164,0.67604834,351.3021,10/23.0/2020,2000,g 14.0,4.0
# From MPC105235
P/2009 WX51 (Catalina),e,9.5952,31.6872,118.0632,3.079547,0.1823786,0.74022173,355.5572,10/23.0/2020,2000,g 19.0,2.0
# From MPC 74247
P/2009 Y2 (Kowalski),e,29.9292,262.0240,172.1766,6.548822,0.0588111,0.63584464,228.5836,10/23.0/2020,2000,g 13.0,4.0
# From MPC 75711
P/2010 A3 (Hill),e,14.8695,64.1179,41.9134,6.075292,0.0658193,0.73321495,254.4954,10/23.0/2020,2000,g 14.0,4.0
# From MPC 72851
P/2010 A5 (LINEAR),e,5.7979,277.6640,307.0879,5.083651,0.0859885,0.66504494,329.0889,10/23.0/2020,2000,g 13.0,4.0
# From MPC105235
P/2010 B2 (WISE),e,8.9306,0.8483,155.9191,3.110009,0.1797056,0.47990377,352.3503,10/23.0/2020,2000,g 17.0,4.0
# From MPC 75008
P/2010 C1 (Scotti),e,9.1281,141.8861,3.7958,7.102692,0.0520678,0.25859824,207.9066,10/23.0/2020,2000,g  9.5,4.0
# From MPC 75008
P/2010 D2 (WISE),e,57.0846,319.8920,120.1045,6.715433,0.0566361,0.45083587,220.9346,10/23.0/2020,2000,g 16.0,4.0
# From MPC 75009
P/2010 E2 (Jarnac),e,15.4075,177.8251,8.3716,8.637716,0.0388245,0.72031222,149.6671,10/23.0/2020,2000,g 14.0,4.0
# From MPC 72851
P/2010 H2 (Vales),e,14.2728,64.2086,128.2139,3.834651,0.1312548,0.19562298,149.6009,10/23.0/2020,2000,g  6.0,4.0
# From MPC 70361
P/2010 H3 (SOHO),e,23.0958,77.1198,26.1207,3.060364,0.1840960,0.98549119,0.0000,02/07.9616/2021,2000,g 20.0,2.0
# From MPC 73463
P/2010 H4 (Scotti),e,2.3191,44.7487,179.5633,6.589251,0.0582707,0.26763901,220.1069,10/23.0/2020,2000,g 10.5,4.0
# From MPC 74637
P/2010 H5 (Scotti),e,14.0679,24.8095,175.2961,7.158120,0.0514642,0.15375164,198.0545,10/23.0/2020,2000,g 13.0,2.0
# From MPC 98558
P/2010 J3 (McMillan),e,13.2897,106.4082,157.5821,8.969726,0.0366890,0.72731165,136.0032,10/23.0/2020,2000,g 11.0,4.0
# From MPC 84315
P/2010 JC81 (WISE),e,38.7130,30.8413,12.4452,8.111469,0.0426633,0.77663761,148.2541,10/23.0/2020,2000,g  9.0,4.0
# From MPC 74248
P/2010 T2 (PANSTARRS),e,7.9195,59.0806,353.7557,5.511060,0.0761818,0.32155152,264.7356,10/23.0/2020,2000,g 11.5,4.0
# From MPC 98558
